ORBCOMM FM37            
1 33064U 08031E   25311.96611872  .00002942  00000+0  40871-3 0  9999
2 33064  48.4404  19.8304 0005991 274.3525 256.7781 14.80387540935349
ORBCOMM FM40            
1 33065U 08031F   25311.51186071  .00003855  00000+0  49746-3 0  9993
2 33065  48.4418   3.5521 0007058 287.2580 213.9302 14.82821923935429
VESSELSAT 1             
1 37840U 11058C   25311.33821341  .00000439  00000+0  94747-4 0  9994
2 37840  19.9628 307.6615 0013523 321.8587  38.0861 14.11387141726557
ORBCOMM FM109           
1 40086U 14040A   25311.99587823  .00001089  00000+0  26893-3 0  9998
2 40086  47.0041  56.9881 0002392 271.4143  88.6469 14.58441428602056
ORBCOMM FM107           
1 40087U 14040B   25311.67449257  .00001256  00000+0  30400-3 0  9997
2 40087  47.0057  59.4109 0001815 232.2658 127.8064 14.58519590602086
ORBCOMM FM106           
1 40088U 14040C   25311.95238579  .00002110  00000+0  37976-3 0  9997
2 40088  47.0592 228.6271 0016658  12.9570 347.1746 14.69880780604628
ORBCOMM FM111           
1 40089U 14040D   25311.62741595  .00006270  00000+0  70431-3 0  9993
2 40089  47.0012  60.7210 0028964 162.2015 197.9903 14.87349744611578
ORBCOMM FM104           
1 40090U 14040E   25312.09564208  .00001152  00000+0  29144-3 0  9990
2 40090  47.0041  92.7704 0016133 144.9386 215.2564 14.56908574601606
